[{"OBJECT_NAME":"IRIDIUM 117","OBJECT_ID":"2017-039F","EPOCH":"2026-03-09T23:34:22.833408","MEAN_MOTION":14.34218658,"ECCENTRICITY":0.00018954,"INCLINATION":86.3969,"RA_OF_ASC_NODE":35.039,"ARG_OF_PERICENTER":83.8599,"MEAN_ANOMALY":276.2812,"EPHEMERIS_TYPE":0,"CLASSIFICATION_TYPE":"U","NORAD_CAT_ID":42808,"ELEMENT_SET_NO":999,"REV_AT_EPOCH":45575,"BSTAR":-9.556456e-6,"MEAN_MOTION_DOT":-7.0e-8,"MEAN_MOTION_DDOT":0},{"OBJECT_NAME":"HILAT","OBJECT_ID":"1983-063A","EPOCH":"2026-03-09T22:24:04.213440","MEAN_MOTION":14.38635467,"ECCENTRICITY":0.00384948,"INCLINATION":82.0207,"RA_OF_ASC_NODE":253.2933,"ARG_OF_PERICENTER":230.4545,"MEAN_ANOMALY":243.3672,"EPHEMERIS_TYPE":0,"CLASSIFICATION_TYPE":"U","NORAD_CAT_ID":14154,"ELEMENT_SET_NO":999,"REV_AT_EPOCH":23331,"BSTAR":0.00017840765,"MEAN_MOTION_DOT":5.66e-6,"MEAN_MOTION_DDOT":0}]
